ORBCOMM FM07            
1 25119U 97084H   24296.50709108  .00003920  00000+0  11742-2 0  9999
2 25119  45.0139  68.5530 0002444 141.6710 218.4315 14.44128110407138
ORBCOMM FM03            
1 25158U 98007B   24296.24174816  .00001895  00000+0  72757-3 0  9994
2 25158 107.9680   7.1896 0048185 302.6261  57.0233 14.33148337389930
ORBCOMM FM04            
1 25159U 98007C   24296.19952044  .00002086  00000+0  79367-3 0  9993
2 25159 107.9666  10.1560 0043867 300.0868  59.5926 14.33415713390106
ORBCOMM FM17            
1 25413U 98046A   24296.52253605  .00002049  00000+0  77724-3 0  9997
2 25413  44.9941 298.4559 0000429  12.1864 347.8993 14.33988623369049
ORBCOMM FM18            
1 25414U 98046B   24296.25449932  .00002944  00000+0  10301-2 0  9999
2 25414  44.9921 223.1497 0002915 158.9391 201.1577 14.37049328370002
ORBCOMM FM19            
1 25415U 98046C   24296.27118205  .00002703  00000+0  95292-3 0  9994
2 25415  44.9931 224.7073 0001744 143.5214  18.7913 14.36879028369960
